POLYTECH-UNIVERSE 3 (R*)
1 57191U 23091AB  26066.60390382  .00008177  00000+0  40308-3 0  9999
2 57191  97.5177 125.0591 0017317 120.7167 239.5776 15.18066289148533
UTMN 2 (RS27S)          
1 57203U 23091AP  26066.60938198  .00020549  00000+0  72113-3 0  9992
2 57203  97.5198 132.5672 0009802  83.0244 277.2111 15.29407416149008
KUZGTU 1 (RS47S)        
1 57217U 23091AV  26066.63966567  .00018662  00000+0  69587-3 0  9995
2 57217  97.5183 130.2112 0012974  96.5355 263.7361 15.27400246148869
SONATE-2                
1 59112U 24043Q   26066.40166166  .00053855  00000+0  91881-3 0  9996
2 59112  97.5394 211.2207 0007827 213.1297 146.9466 15.51138763112078
MESAT1                  
1 60209U 24125G   26066.57456632  .00057322  00000+0  90154-3 0  9999
2 60209  97.2457 282.3973 0011312 230.7250 129.3001 15.53360877 93748
OOV-CUBE (TUBSAT-30)    
1 60240U 24128F   26066.63267267  .00005147  00000+0  39168-3 0  9994
2 60240  61.9946 219.5521 0054642 111.9163 248.7750 15.02232851 90851
COLIBRI-S (RS67S)       
1 61746U 24199M   26066.60986508  .00031494  00000+0  70600-3 0  9997
2 61746  97.3157 299.7619 0007729 294.9389  65.1055 15.43333194121721
HORS 3 (RS81S)          
1 61753U 24199U   26066.64289858  .00044994  00000+0  85237-3 0  9994
2 61753  97.3127 300.8866 0005777 301.1060  58.9623 15.48208377121812
HORS 4 (RS82S)          
1 61754U 24199V   26066.58537374  .00052863  00000+0  90774-3 0  9993
2 61754  97.3100 301.5175 0005396 298.8168  61.2542 15.50977970121859
HORIZON (RS59S)         
1 61757U 24199Y   26066.64302524  .00166851  00000+0  13910-2 0  9999
2 61757  97.3071 305.3558 0003021 262.1665  97.9254 15.69564899122102
ARCTICSAT 1 (RS74S)     
1 61762U 24199AD  26066.65016316  .00123143  00000+0  12287-2 0  9990
2 61762  97.3090 304.8985 0003463 261.6197  98.4671 15.65242625122072
SIT-2086                
1 61764U 24199AF  26066.58822904  .00032338  00000+0  62888-3 0  9990
2 61764  97.3120 301.5650 0006053 281.7118  78.3453 15.47518280118696
RUZAEVKA 390 (RS44S)    
1 61766U 24199AH  26066.36322820  .02010087  39146-2  19529-2 0  9998
2 61766  97.2775 308.5975 0002931 174.1619 185.9701 16.12603448119159
HYPERVIEW 1G (RS66S)    
1 61772U 24199AP  26066.63688085  .00082334  00000+0  11052-2 0  9992
2 61772  97.3085 302.6556 0006617 294.3522  65.7043 15.57636014118789
ALTAIR (RS65S)          
1 61779U 24199AW  26066.61551342  .00012785  00000+0  37845-3 0  9994
2 61779  97.3180 296.6902 0012243 316.5833  43.4445 15.34946781121528
ASRTU-1 (AO-123)        
1 61781U 24199AY  26066.59389543  .00013077  00000+0  39850-3 0  9999
2 61781  97.3153 296.1995 0012993 318.6045  41.4212 15.34011902118342
TUSUR GO (RS78S)        
1 61782U 24199AZ  26066.59294155  .00177867  00000+0  14515-2 0  9992
2 61782  97.3023 304.3136 0003742 285.8333  74.2516 15.70049501118892
SAMSAT-IONOSPHERE (RS7*)
1 61784U 24199BB  26066.60404266  .00051007  00000+0  92733-3 0  9998
2 61784  97.3115 300.6370 0008833 302.9186  57.1215 15.49336606121798
RTU MIREA 1 (RS51S)     
1 61785U 24199BC  26066.60453553  .00055824  00000+0  94873-3 0  9990
2 61785  97.3113 301.0757 0008523 297.9643  62.0746 15.51232204118677
TEVEL2-4                
1 63213U 25052D   26066.66788863  .00028615  00000+0  96054-3 0  9999
2 63213  97.4017 323.1028 0004628  99.2619 260.9145 15.30817840 54564
TEVEL2-5                
1 63214U 25052E   26066.61331062  .00027738  00000+0  93482-3 0  9997
2 63214  97.4016 323.0217 0004633  99.7623 260.4141 15.30695370 54551
TEVEL2-6                
1 63215U 25052F   26066.62308033  .00027774  00000+0  93719-3 0  9994
2 63215  97.4020 323.0171 0004741 100.3069 259.8707 15.30655039 54557
TEVEL2-1                
1 63217U 25052H   26066.62076055  .00027602  00000+0  94341-3 0  9994
2 63217  97.3994 322.7487 0004708 109.0603 251.1148 15.30239399 54547
TEVEL2-3                
1 63218U 25052J   26066.61838638  .00027304  00000+0  93233-3 0  9995
2 63218  97.3998 322.7580 0004630 109.4660 250.7081 15.30274192 54548
TEVEL2-2                
1 63219U 25052K   26066.22907211  .00027424  00000+0  93790-3 0  9998
2 63219  97.3996 322.3595 0004619 110.9694 249.2041 15.30222112 54487
TEVEL2-9                
1 63237U 25052AD  26066.60750988  .00025803  00000+0  92903-3 0  9991
2 63237  97.4054 322.3101 0007914 130.8688 229.3238 15.28534571 54491
TEVEL2-7                
1 63238U 25052AE  26066.63152217  .00024907  00000+0  90283-3 0  9999
2 63238  97.4053 322.2870 0007956 129.4899 230.7046 15.28320826 54496
TEVEL2-8                
1 63239U 25052AF  26066.63851468  .00025280  00000+0  91684-3 0  9995
2 63239  97.4059 322.2745 0007953 130.6221 229.5711 15.28299372 54490
HADES-ICM               
1 63492U 25052BN  26066.64053374  .00176956  00000+0  24748-2 0  9990
2 63492  97.3948 327.0138 0008861 115.0711 245.1464 15.56174711 54822
INNOSAT 16 (RS92S7)     
1 64878U 25155C   26066.61576455  .00009970  00000+0  41203-3 0  9997
2 64878  97.4466  34.2280 0010724 172.4034 187.7368 15.24140949 65195
GEOSCAN 6 (RS92S6)      
1 64879U 25155D   26066.61943744  .00017005  00000+0  62559-3 0  9992
2 64879  97.4465  35.0033 0008477 161.0231 199.1326 15.27910165 65240
GEOSCAN 1 (RS92S1)      
1 64880U 25155E   26066.59032485  .00019582  00000+0  71066-3 0  9997
2 64880  97.4464  35.0468 0008356 161.1523 199.0028 15.28328581 65248
239ALFEROV (RS61S)      
1 64881U 25155F   26066.61809993  .00024107  00000+0  83461-3 0  9998
2 64881  97.4469  35.3435 0008155 158.7338 201.4243 15.29829339 65261
GEOSCAN 2 (RS92S2)      
1 64890U 25155Q   26066.60309063  .00018626  00000+0  67007-3 0  9997
2 64890  97.4462  35.1693 0008248 148.0727 212.1014 15.28628017 65258
GEOSCAN 5 (RS92S5)      
1 64891U 25155R   26066.62871073  .00023032  00000+0  78978-3 0  9991
2 64891  97.4462  35.4514 0006752 161.0794 199.0699 15.30160986 65274
GEOSCAN 4 (RS92S4)      
1 64892U 25155S   26066.62123277  .00024053  00000+0  82192-3 0  9995
2 64892  97.4464  35.4681 0006770 161.5608 198.5879 15.30265710 65276
GEOSCAN 3 (RS92S3)      
1 64893U 25155T   26066.60095556  .00029527  00000+0  96792-3 0  9994
2 64893  97.4456  35.6345 0006428 161.2030 198.9450 15.31569197 65280
INNOSAT 3 (RS92S0)      
1 64894U 25155U   26066.64063319  .00051170  00000+0  14304-2 0  9998
2 64894  97.4428  36.3089 0006173 152.2749 207.8825 15.36497670 65330
